OBJECT_NAME,OBJECT_ID,EPOCH,MEAN_MOTION,ECCENTRICITY,INCLINATION,RA_OF_ASC_NODE,ARG_OF_PERICENTER,MEAN_ANOMALY,EPHEMERIS_TYPE,CLASSIFICATION_TYPE,NORAD_CAT_ID,ELEMENT_SET_NO,REV_AT_EPOCH,BSTAR,MEAN_MOTION_DOT,MEAN_MOTION_DDOT
STARLINK-30333,2023-129E,2026-03-14T09:04:43.017024,15.27585073,.00011788,43.0030,91.0893,280.9527,79.1192,0,U,57702,999,14140,.10621522E-3,.2662E-4,0
STARLINK-30336,2023-129F,2026-03-14T17:30:09.897408,15.26753887,.00014071,43.0010,89.4180,264.5184,95.5507,0,U,57703,999,14131,.14963732E-3,.3758E-4,0
STARLINK-30346,2023-129G,2026-03-14T10:47:34.702080,15.26747207,.00014324,43.0034,90.7629,266.3121,93.7566,0,U,57704,999,14127,.88972859E-4,.2128E-4,0
STARLINK-30327,2023-129K,2026-03-14T05:27:32.608800,15.27323766,.00213069,43.0010,59.4077,107.4268,252.8916,0,U,57707,999,14162,.34971392E-2,.97091E-3,0
STARLINK-30315,2023-129L,2026-03-14T17:26:58.666560,15.27568280,.00012799,42.9989,89.3978,263.9605,96.1101,0,U,57708,999,14145,.205752E-4,.304E-5,0
STARLINK-30287,2023-129M,2026-03-14T09:18:40.698720,15.26755030,.00019084,43.0030,91.1574,254.6744,105.3896,0,U,57709,999,14140,.60342654E-4,.136E-4,0
STARLINK-30335,2023-129N,2026-03-14T11:00:34.348032,15.26747082,.0001216,42.9995,90.8261,271.1152,88.9560,0,U,57710,999,14141,.37624186E-4,.75E-5,0
STARLINK-30318,2023-129P,2026-03-14T22:00:01.999584,15.27550862,.00018072,43.0024,88.0821,263.1431,160.0624,0,U,57711,999,578,.17286686E-2,.47573E-3,0
STARLINK-30348,2023-129Q,2026-03-14T22:00:01.999584,15.27566504,.00010424,42.9997,88.4769,258.9736,1.5034,0,U,57712,999,578,.20622296E-2,.56901E-3,0
STARLINK-30349,2023-129R,2026-03-14T09:58:12.424512,15.26748270,.00010921,42.9995,91.3525,270.4951,89.5775,0,U,57713,999,14126,.83149911E-4,.1972E-4,0
STARLINK-30341,2023-129S,2026-03-14T22:00:01.999584,15.12682486,.00008766,43.0010,91.1786,245.5308,307.4487,0,U,57714,999,583,.79269341E-1,.1531234E-1,0
STARLINK-30300,2023-129T,2026-03-14T17:38:03.152544,15.27580631,.00013007,43.0022,89.4501,259.9746,100.0959,0,U,57715,999,14145,.85654093E-4,.2096E-4,0
STARLINK-30281,2023-129U,2026-03-14T18:08:39.091200,15.26752431,.00008806,42.9987,89.6055,257.1090,102.9663,0,U,57716,999,14131,.11295819E-3,.2773E-4,0
STARLINK-30325,2023-129V,2026-03-14T17:49:09.782976,15.27577453,.00011926,42.9995,89.5058,258.5914,101.4804,0,U,57717,999,14145,.58314886E-4,.1343E-4,0
STARLINK-30338,2023-129W,2026-03-14T10:12:57.128544,15.26734332,.00018182,43.0019,91.4282,282.3020,77.7628,0,U,57718,999,14140,.10739672E-3,.2621E-4,0
STARLINK-30334,2023-129X,2026-03-14T17:55:44.287104,15.26753990,.00009695,42.9991,89.5405,264.8414,95.2327,0,U,57719,999,14130,-.71394076E-4,-.2175E-4,0
YAOGAN-39 01A,2023-130A,2026-03-13T18:17:34.881792,15.23048750,.00035676,35.0038,8.8473,333.6129,26.4404,0,U,57727,999,14115,.17850023E-3,.4272E-4,0
YAOGAN-39 01B,2023-130B,2026-03-14T22:52:43.908672,15.17432986,.00025427,34.9953,19.4161,249.8763,110.1676,0,U,57728,999,14116,.45182562E-3,.9227E-4,0
YAOGAN-39 01C,2023-130E,2026-03-14T22:46:59.615040,15.17438182,.00023256,34.9939,19.3645,250.0964,109.9499,0,U,57731,999,14114,.44138463E-3,.9014E-4,0
STARLINK-30375,2023-131A,2026-03-14T20:38:15.370368,15.26752011,.00008659,42.9989,128.2252,258.4187,101.6567,0,U,57732,999,14089,.12567737E-3,.3114E-4,0
STARLINK-30310,2023-131B,2026-03-14T21:46:24.267648,15.02552598,.00013775,43.0030,143.0406,270.3666,89.7019,0,U,57733,999,14072,.22121564E-4,.95E-6,0
STARLINK-30365,2023-131C,2026-03-14T22:00:01.999584,15.21712917,.00014452,43.0005,142.6418,245.3898,300.7317,0,U,57734,999,583,.74501988E-1,.1898503E-1,0
STARLINK-30371,2023-131D,2026-03-14T22:05:34.878048,15.02540024,.0001348,43.0026,143.1404,264.9059,95.1629,0,U,57735,999,14071,.3634756E-4,.287E-5,0
STARLINK-30352,2023-131E,2026-03-14T21:51:11.439648,15.02541196,.00012075,43.0009,143.0631,266.6867,93.3837,0,U,57736,999,14071,.71631329E-4,.764E-5,0
STARLINK-30344,2023-131F,2026-03-14T21:57:50.713056,15.05195523,.00007968,43.0005,143.1123,246.1057,113.9703,0,U,57737,999,14071,.7697113E-3,.10972E-3,0
STARLINK-30351,2023-131G,2026-03-14T22:00:01.999584,15.21297637,.00015159,43.0006,142.5951,262.1395,319.6055,0,U,57738,999,583,.43275212E-1,.1065272E-1,0
STARLINK-30242,2023-131H,2026-03-14T19:09:33.119136,15.27585847,.00013075,43.0016,114.7945,266.8514,93.2188,0,U,57739,999,14103,.14430866E-3,.3712E-4,0
STARLINK-30331,2023-131J,2026-03-14T17:13:33.972384,15.27562869,.00003215,43.0034,71.0031,58.0703,302.0180,0,U,57740,999,14154,-.28087312E-4,-.1034E-4,0
STARLINK-30364,2023-131K,2026-03-14T22:00:01.999584,15.22317056,.00017225,43.0026,142.4482,281.0087,3.4642,0,U,57741,999,548,.35627487E-1,.903426E-2,0
STARLINK-30308,2023-131L,2026-03-14T22:00:01.999584,15.22099724,.00013169,43.0019,142.6563,267.3107,289.6252,0,U,57742,999,583,.36696532E-1,.926488E-2,0
STARLINK-30361,2023-131M,2026-03-14T22:00:01.999584,15.21069736,.00013722,43.0022,142.4900,279.8170,346.3715,0,U,57743,999,552,.35534553E-1,.865977E-2,0
STARLINK-30363,2023-131N,2026-03-14T20:57:24.816096,15.26750698,.00012169,43.0003,128.3279,259.2383,100.8331,0,U,57744,999,14088,.10375937E-3,.2525E-4,0
STARLINK-30362,2023-131P,2026-03-14T22:00:01.999584,15.15212147,.00010547,43.0003,142.8552,285.2210,184.0322,0,U,57745,999,557,.59238988E-1,.1222162E-1,0
STARLINK-30350,2023-131Q,2026-03-14T21:41:53.600640,15.27587368,.00016435,43.0049,139.6117,290.4521,69.6154,0,U,57746,999,14075,.91124754E-4,.2247E-4,0
STARLINK-30307,2023-131R,2026-03-14T22:00:01.999584,15.18092605,.00007684,43.0008,142.6472,254.1506,304.3912,0,U,57747,999,582,.55118216E-1,.1254076E-1,0
STARLINK-30356,2023-131S,2026-03-14T22:00:01.999584,15.20117101,.00011208,43.0021,142.1185,271.2553,151.6992,0,U,57748,999,562,.25748396E-1,.609139E-2,0
STARLINK-30366,2023-131T,2026-03-14T21:38:30.905376,15.02854163,.00013317,43.0014,143.0009,280.4868,79.5825,0,U,57749,999,14071,.73097708E-3,.9768E-4,0
STARLINK-30357,2023-131U,2026-03-14T21:55:59.409984,15.02534552,.0001581,43.0038,143.0901,272.1565,87.9096,0,U,57750,999,14071,.46548725E-4,.425E-5,0
STARLINK-30370,2023-131V,2026-03-14T20:47:19.502016,15.26745732,.00003879,42.9976,128.3077,31.3127,328.7747,0,U,57751,999,14088,.78752749E-4,.1854E-4,0
STARLINK-30368,2023-131W,2026-03-14T22:00:01.999584,15.20695624,.00018604,43.0009,142.6942,230.2911,293.3640,0,U,57752,999,583,.83072784E-1,.2074125E-1,0
STARLINK-30343,2023-131X,2026-03-14T22:00:48.051648,15.02536039,.00006481,43.0010,143.1152,298.6794,61.3984,0,U,57753,999,14071,.285843E-3,.366E-4,0
WILDFIRE 4,2023-133A,2026-03-14T14:19:08.304960,13.86339066,.00088564,80.9981,97.1095,248.0813,111.9403,0,U,57756,999,12801,.79570697E-4,.103E-5,0
BB4,2023-133B,2026-03-12T00:56:28.424832,14.04462543,.0008471,80.9986,99.0549,255.3723,104.6505,0,U,57757,999,12766,.17662E-3,.293E-5,0
WILDFIRE 3,2023-133C,2026-03-14T18:11:45.086208,13.86125360,.00077121,80.9929,96.7899,246.9212,113.1132,0,U,57758,999,12801,.47480814E-4,.66E-6,0
BB3,2023-133D,2026-03-14T22:29:24.519840,14.29491756,.0153119,80.9946,89.8507,225.3821,133.4789,0,U,57760,999,12845,.19976161E-3,.591E-5,0
WILDFIRE 7,2023-133E,2026-03-14T19:11:58.742880,13.85082668,.00042787,80.9953,98.5300,293.3736,66.6970,0,U,57761,999,12792,.11796829E-3,.144E-5,0
CHECKMATE 10,2023-133F,2026-03-14T19:23:44.067552,13.85465859,.00050509,80.9966,98.0273,261.9866,98.0718,0,U,57762,999,12796,.78454515E-4,.1E-5,0
WILDFIRE 6,2023-133G,2026-03-14T13:32:30.195168,13.85320022,.00045717,80.9915,98.0184,272.0864,87.9768,0,U,57763,999,12791,.63242046E-4,.83E-6,0
WILDFIRE 1,2023-133H,2026-03-14T19:23:52.037952,13.85716787,.0005409,80.9960,97.6422,252.1412,107.9155,0,U,57764,999,12798,.10827641E-3,.135E-5,0
WILDFIRE 9,2023-133J,2026-03-14T19:28:30.228672,13.85383511,.00047713,80.9998,98.5296,266.9773,93.0837,0,U,57765,999,12795,-.15666221E-3,-.167E-5,0
WILDFIRE 10,2023-133K,2026-03-14T19:29:23.485632,13.85596111,.0005234,80.9989,98.0956,255.8286,104.2289,0,U,57766,999,12797,.72205686E-4,.93E-6,0
WILDFIRE 2,2023-133L,2026-03-14T18:59:26.334528,13.85187871,.00044559,80.9923,98.0728,282.3008,77.7649,0,U,57767,999,12793,.71756363E-4,.92E-6,0
WILDFIRE 8,2023-133M,2026-03-14T22:22:05.060928,13.85414374,.0004669,80.9914,97.5030,266.0411,94.0212,0,U,57768,999,12798,.71252783E-4,.92E-6,0
WILDFIRE 5,2023-133N,2026-03-14T12:56:55.376448,13.85448620,.00049349,80.9999,98.6509,263.3215,96.7380,0,U,57769,999,12792,.71795257E-4,.93E-6,0
STARLINK-30397,2023-134A,2026-03-14T14:08:44.928096,15.27582770,.00014865,43.0047,167.0379,261.9755,98.0928,0,U,57771,999,14025,.93244567E-4,.2305E-4,0
STARLINK-30354,2023-134B,2026-03-14T22:00:01.999584,15.19926364,.00016065,43.0020,167.6345,284.7718,118.0475,0,U,57772,999,578,.23301645E-1,.543922E-2,0
STARLINK-30383,2023-134C,2026-03-14T22:00:01.999584,15.22115884,.0001792,43.0047,167.9203,283.0499,1.9076,0,U,57773,999,582,.20782703E-1,.515378E-2,0
STARLINK-30384,2023-134D,2026-03-14T22:00:01.999584,15.22525295,.00016491,43.0044,167.6735,285.9647,102.9740,0,U,57774,999,573,.19566995E-1,.495057E-2,0
STARLINK-30305,2023-134E,2026-03-14T15:48:26.648928,15.27587442,.00010939,43.0015,166.6917,274.0625,86.0101,0,U,57775,999,14026,.11559639E-3,.2921E-4,0
STARLINK-30360,2023-134F,2026-03-14T15:50:20.829120,15.27522509,.00013768,42.9986,166.7012,292.7027,67.3679,0,U,57776,999,14026,.11882391E-2,.32523E-3,0
STARLINK-30355,2023-134G,2026-03-14T22:00:01.999584,15.20538962,.00016156,43.0031,168.0121,286.4087,307.6930,0,U,57777,999,578,.23857409E-1,.568572E-2,0
STARLINK-30385,2023-134H,2026-03-14T22:28:13.947456,15.26746096,.00002971,42.9995,153.3268,223.2080,136.8748,0,U,57778,999,14028,.14803233E-3,.3714E-4,0
STARLINK-30359,2023-134J,2026-03-14T22:00:01.999584,15.27597783,.00015501,43.0020,153.7022,263.4715,253.8840,0,U,57779,999,583,-.46702468E-3,-.13098E-3,0
STARLINK-30380,2023-134K,2026-03-14T15:11:27.060576,15.27574758,.00015255,43.0009,166.4855,255.1291,104.9392,0,U,57780,999,14026,.2172812E-5,-.202E-5,0
STARLINK-30369,2023-134L,2026-03-14T15:05:53.121984,15.27586201,.00010741,43.0017,166.4555,274.8553,85.2176,0,U,57781,999,14026,.86316019E-4,.2114E-4,0
